start=new Date('2023-04-03T00:00:00.000Z').valueOf();
sats=[{"MEAN_ANOMALY":"91.8522","TIME_SYSTEM":"UTC","NORAD_CAT_ID":"55386","LAUNCH_DATE":"2023-01-26","SEMIMAJOR_AXIS":"6937.242","PERIOD":"95.838","RCS_SIZE":"LARGE","OBJECT_NAME":"STARLINK-5555","TLE_LINE1":"1 55386U 23013BH  23092.85769974  .00001146  00000-0  99947-4 0  9991","ECCENTRICITY":"0.00015650","TLE_LINE2":"2 55386  43.0040  16.8755 0001565 268.2141  91.8522 15.02527883 10338","OBJECT_ID":"2023-013BH","REV_AT_EPOCH":"1033","EPHEMERIS_TYPE":"0","OBJECT_TYPE":"PAYLOAD","DECAY_DATE":null,"ELEMENT_SET_NO":"999","BSTAR":"0.00009994700000","RA_OF_ASC_NODE":"16.8755","CLASSIFICATION_TYPE":"U","PERIAPSIS":"558.021","EPOCH":"2023-04-02T20:35:05.257536","APOAPSIS":"560.192","GP_ID":"229355267","COUNTRY_CODE":"US","ARG_OF_PERICENTER":"268.2141","FILE":"3878419","SITE":"AFETR","MEAN_MOTION_DDOT":"0.0000000000000","MEAN_MOTION_DOT":"0.00001146","MEAN_MOTION":"15.02527883","MEAN_ELEMENT_THEORY":"SGP4","REF_FRAME":"TEME","CENTER_NAME":"EARTH","INCLINATION":"43.0040"},{"GP_ID":"229354538","COUNTRY_CODE":"US","ARG_OF_PERICENTER":"278.8783","FILE":"3878419","CLASSIFICATION_TYPE":"U","RA_OF_ASC_NODE":"277.5428","PERIAPSIS":"356.861","EPOCH":"2023-04-02T21:53:14.024832","APOAPSIS":"361.518","REF_FRAME":"TEME","CENTER_NAME":"EARTH","INCLINATION":"69.9992","SITE":"AFWTR","MEAN_MOTION":"15.69898368","MEAN_MOTION_DOT":"-0.00014446","MEAN_MOTION_DDOT":"0.0000000000000","MEAN_ELEMENT_THEORY":"SGP4","SEMIMAJOR_AXIS":"6737.325","PERIOD":"91.726","OBJECT_NAME":"STARLINK-5077","RCS_SIZE":"LARGE","MEAN_ANOMALY":"81.2021","NORAD_CAT_ID":"55391","TIME_SYSTEM":"UTC","LAUNCH_DATE":"2023-01-31","DECAY_DATE":null,"OBJECT_TYPE":"PAYLOAD","ELEMENT_SET_NO":"999","BSTAR":"-0.00011870000000","TLE_LINE1":"1 55391U 23014A   23092.91196788 -.00014446  00000-0 -11870-3 0  9999","TLE_LINE2":"2 55391  69.9992 277.5428 0003456 278.8783  81.2021 15.69898368 10755","ECCENTRICITY":"0.00034560","OBJECT_ID":"2023-014A","REV_AT_EPOCH":"1075","EPHEMERIS_TYPE":"0"},{"OBJECT_ID":"2023-014B","EPHEMERIS_TYPE":"0","REV_AT_EPOCH":"1075","TLE_LINE1":"1 55392U 23014B   23092.90962149  .00001126  00000-0  11133-4 0  9993","TLE_LINE2":"2 55392  69.9988 277.5465 0003743 272.7928  87.2839 15.69926240 10759","ECCENTRICITY":"0.00037430","ELEMENT_SET_NO":"999","BSTAR":"0.00001113300000","OBJECT_TYPE":"PAYLOAD","DECAY_DATE":null,"LAUNCH_DATE":"2023-01-31","MEAN_ANOMALY":"87.2839","NORAD_CAT_ID":"55392","TIME_SYSTEM":"UTC","OBJECT_NAME":"STARLINK-5085","RCS_SIZE":"LARGE","PERIOD":"91.724","SEMIMAJOR_AXIS":"6737.245","MEAN_MOTION":"15.69926240","MEAN_MOTION_DDOT":"0.0000000000000","MEAN_MOTION_DOT":"0.00001126","MEAN_ELEMENT_THEORY":"SGP4","SITE":"AFWTR","INCLINATION":"69.9988","REF_FRAME":"TEME","CENTER_NAME":"EARTH","PERIAPSIS":"356.588","EPOCH":"2023-04-02T21:49:51.296736","APOAPSIS":"361.632","CLASSIFICATION_TYPE":"U","RA_OF_ASC_NODE":"277.5465","ARG_OF_PERICENTER":"272.7928","FILE":"3878419","GP_ID":"229354788","COUNTRY_CODE":"US"},{"NORAD_CAT_ID":"55393","TIME_SYSTEM":"UTC","MEAN_ANOMALY":"95.2431","LAUNCH_DATE":"2023-01-31","PERIOD":"91.723","SEMIMAJOR_AXIS":"6737.191","OBJECT_NAME":"STARLINK-4786","RCS_SIZE":"LARGE","TLE_LINE2":"2 55393  69.9997 277.5439 0003471 264.8368  95.2431 15.69945291 10753","ECCENTRICITY":"0.00034710","TLE_LINE1":"1 55393U 23014C   23092.91216949  .00007437  00000-0  63510-4 0  9992","REV_AT_EPOCH":"1075","EPHEMERIS_TYPE":"0","OBJECT_ID":"2023-014C","OBJECT_TYPE":"PAYLOAD","DECAY_DATE":null,"BSTAR":"0.00006351000000","ELEMENT_SET_NO":"999","CLASSIFICATION_TYPE":"U","RA_OF_ASC_NODE":"277.5439","EPOCH":"2023-04-02T21:53:31.443936","APOAPSIS":"361.394","PERIAPSIS":"356.717","COUNTRY_CODE":"US","GP_ID":"229355039","FILE":"3878419","ARG_OF_PERICENTER":"264.8368","SITE":"AFWTR","MEAN_ELEMENT_THEORY":"SGP4","MEAN_MOTION":"15.69945291","MEAN_MOTION_DOT":"0.00007437","MEAN_MOTION_DDOT":"0.0000000000000","CENTER_NAME":"EARTH","REF_FRAME":"TEME","INCLINATION":"69.9997"},{"OBJECT_TYPE":"PAYLOAD","DECAY_DATE":null,"BSTAR":"0.00005579000000","ELEMENT_SET_NO":"999","ECCENTRICITY":"0.00031190","TLE_LINE2":"2 55394  69.9996 277.5440 0003119 256.4220 103.6629 15.69945705 10751","TLE_LINE1":"1 55394U 23014D   23092.91248918  .00006506  00000-0  55790-4 0  9991","REV_AT_EPOCH":"1075","EPHEMERIS_TYPE":"0","OBJECT_ID":"2023-014D","PERIOD":"91.723","SEMIMAJOR_AXIS":"6737.189","OBJECT_NAME":"STARLINK-5230","RCS_SIZE":"LARGE","TIME_SYSTEM":"UTC","NORAD_CAT_ID":"55394","MEAN_ANOMALY":"103.6629","LAUNCH_DATE":"2023-01-31","CENTER_NAME":"EARTH","REF_FRAME":"TEME","INCLINATION":"69.9996","SITE":"AFWTR","MEAN_ELEMENT_THEORY":"SGP4","MEAN_MOTION_DOT":"0.00006506","MEAN_MOTION_DDOT":"0.0000000000000","MEAN_MOTION":"15.69945705","COUNTRY_CODE":"US","GP_ID":"229355768","FILE":"3878419","ARG_OF_PERICENTER":"256.4220","RA_OF_ASC_NODE":"277.5440","CLASSIFICATION_TYPE":"U","EPOCH":"2023-04-02T21:53:59.065152","APOAPSIS":"361.156","PERIAPSIS":"356.953"},{"BSTAR":"-0.00165500000000","ELEMENT_SET_NO":"999","OBJECT_TYPE":"PAYLOAD","DECAY_DATE":null,"REV_AT_EPOCH":"976","EPHEMERIS_TYPE":"0","OBJECT_ID":"2023-014E","ECCENTRICITY":"0.00022030","TLE_LINE2":"2 55395  69.9990 278.4443 0002203  66.2855 293.8571 15.68506305  9768","TLE_LINE1":"1 55395U 23014E   23092.59531311 -.00183826  00000-0 -16550-2 0  9990","RCS_SIZE":"LARGE","OBJECT_NAME":"STARLINK-5274","PERIOD":"91.807","SEMIMAJOR_AXIS":"6741.310","LAUNCH_DATE":"2023-01-31","TIME_SYSTEM":"UTC","NORAD_CAT_ID":"55395","MEAN_ANOMALY":"293.8571","INCLINATION":"69.9990","CENTER_NAME":"EARTH","REF_FRAME":"TEME","MEAN_ELEMENT_THEORY":"SGP4","MEAN_MOTION_DDOT":"0.0000000000000","MEAN_MOTION_DOT":"-0.00183826","MEAN_MOTION":"15.68506305","SITE":"AFWTR","FILE":"3878186","ARG_OF_PERICENTER":"66.2855","COUNTRY_CODE":"US","GP_ID":"229324068","EPOCH":"2023-04-02T14:17:15.052704","APOAPSIS":"364.661","PERIAPSIS":"361.690","RA_OF_ASC_NODE":"278.4443","CLASSIFICATION_TYPE":"U"},{"MEAN_ELEMENT_THEORY":"SGP4","MEAN_MOTION_DOT":"0.00004569","MEAN_MOTION_DDOT":"0.0000000000000","MEAN_MOTION":"15.69902560","SITE":"AFWTR","INCLINATION":"69.9986","CENTER_NAME":"EARTH","REF_FRAME":"TEME","APOAPSIS":"361.842","EPOCH":"2023-04-02T21:54:27.157248","PERIAPSIS":"356.513","RA_OF_ASC_NODE":"277.5446","CLASSIFICATION_TYPE":"U","FILE":"3878419","ARG_OF_PERICENTER":"267.2028","COUNTRY_CODE":"US","GP_ID":"229354288","REV_AT_EPOCH":"1075","EPHEMERIS_TYPE":"0","OBJECT_ID":"2023-014F","ECCENTRICITY":"0.00039550","TLE_LINE2":"2 55396  69.9986 277.5446 0003955 267.2028  92.8715 15.69902560 10759","TLE_LINE1":"1 55396U 23014F   23092.91281432  .00004569  00000-0  39781-4 0  9990","BSTAR":"0.00003978100000","ELEMENT_SET_NO":"999","DECAY_DATE":null,"OBJECT_TYPE":"PAYLOAD","LAUNCH_DATE":"2023-01-31","TIME_SYSTEM":"UTC","NORAD_CAT_ID":"55396","MEAN_ANOMALY":"92.8715","RCS_SIZE":"LARGE","OBJECT_NAME":"STARLINK-5283","PERIOD":"91.725","SEMIMAJOR_AXIS":"6737.313"},{"ELEMENT_SET_NO":"999","BSTAR":"0.00003243900000","DECAY_DATE":null,"OBJECT_TYPE":"PAYLOAD","OBJECT_ID":"2023-014G","REV_AT_EPOCH":"1075","EPHEMERIS_TYPE":"0","TLE_LINE1":"1 55397U 23014G   23092.91228149  .00003690  00000-0  32439-4 0  9994","ECCENTRICITY":"0.00039060","TLE_LINE2":"2 55397  69.9988 277.5435 0003906 273.1195  86.9554 15.69928414 10758","RCS_SIZE":"LARGE","OBJECT_NAME":"STARLINK-5224","SEMIMAJOR_AXIS":"6737.239","PERIOD":"91.724","LAUNCH_DATE":"2023-01-31","MEAN_ANOMALY":"86.9554","TIME_SYSTEM":"UTC","NORAD_CAT_ID":"55397","INCLINATION":"69.9988","REF_FRAME":"TEME","CENTER_NAME":"EARTH","MEAN_MOTION_DOT":"0.00003690","MEAN_MOTION_DDOT":"0.0000000000000","MEAN_MOTION":"15.69928414","MEAN_ELEMENT_THEORY":"SGP4","SITE":"AFWTR","ARG_OF_PERICENTER":"273.1195","FILE":"3878419","GP_ID":"229355540","COUNTRY_CODE":"US","PERIAPSIS":"356.472","EPOCH":"2023-04-02T21:53:41.120736","APOAPSIS":"361.735","RA_OF_ASC_NODE":"277.5435","CLASSIFICATION_TYPE":"U"},{"MEAN_ANOMALY":"93.1052","NORAD_CAT_ID":"55398","TIME_SYSTEM":"UTC","LAUNCH_DATE":"2023-01-31","PERIOD":"91.723","SEMIMAJOR_AXIS":"6737.217","OBJECT_NAME":"STARLINK-5275","RCS_SIZE":"LARGE","TLE_LINE1":"1 55398U 23014H   23092.91290919  .00002954  00000-0  26311-4 0  9993","TLE_LINE2":"2 55398  69.9977 277.5443 0003779 266.9711  93.1052 15.69936035 10759","ECCENTRICITY":"0.00037790","OBJECT_ID":"2023-014H","EPHEMERIS_TYPE":"0","REV_AT_EPOCH":"1075","DECAY_DATE":null,"OBJECT_TYPE":"PAYLOAD","ELEMENT_SET_NO":"999","BSTAR":"0.00002631100000","CLASSIFICATION_TYPE":"U","RA_OF_ASC_NODE":"277.5443","PERIAPSIS":"356.536","APOAPSIS":"361.628","EPOCH":"2023-04-02T21:54:35.354016","GP_ID":"229355268","COUNTRY_CODE":"US","ARG_OF_PERICENTER":"266.9711","FILE":"3878419","SITE":"AFWTR","MEAN_MOTION":"15.69936035","MEAN_MOTION_DOT":"0.00002954","MEAN_MOTION_DDOT":"0.0000000000000","MEAN_ELEMENT_THEORY":"SGP4","REF_FRAME":"TEME","CENTER_NAME":"EARTH","INCLINATION":"69.9977"},{"LAUNCH_DATE":"2023-01-31","TIME_SYSTEM":"UTC","NORAD_CAT_ID":"55399","MEAN_ANOMALY":"77.6065","RCS_SIZE":"LARGE","OBJECT_NAME":"STARLINK-5276","SEMIMAJOR_AXIS":"6737.281","PERIOD":"91.725","REV_AT_EPOCH":"1075","EPHEMERIS_TYPE":"0","OBJECT_ID":"2023-014J","ECCENTRICITY":"0.00042270","TLE_LINE2":"2 55399  69.9989 277.5419 0004227 282.4658  77.6065 15.69913608 10750","TLE_LINE1":"1 55399U 23014J   23092.91254418  .00012888  00000-0  10882-3 0  9990","BSTAR":"0.00010882000000","ELEMENT_SET_NO":"999","DECAY_DATE":null,"OBJECT_TYPE":"PAYLOAD","APOAPSIS":"361.994","EPOCH":"2023-04-02T21:54:03.817152","PERIAPSIS":"356.298","RA_OF_ASC_NODE":"277.5419","CLASSIFICATION_TYPE":"U","FILE":"3878419","ARG_OF_PERICENTER":"282.4658","COUNTRY_CODE":"US","GP_ID":"229354539","MEAN_ELEMENT_THEORY":"SGP4","MEAN_MOTION_DOT":"0.00012888","MEAN_MOTION_DDOT":"0.0000000000000","MEAN_MOTION":"15.69913608","SITE":"AFWTR","INCLINATION":"69.9989","CENTER_NAME":"EARTH","REF_FRAME":"TEME"}];
